CCSDS_OMM_VERS = 2.0
CREATION_DATE  = 
ORIGINATOR     = 

OBJECT_NAME    = STARLINK-36995
OBJECT_ID      = 2026-049B
CENTER_NAME    = EARTH
REF_FRAME      = TEME
TIME_SYSTEM    = UTC
MEAN_ELEMENT_THEORY = SGP/SGP4

EPOCH          = 2026-04-01T20:00:01.999008
MEAN_MOTION    = 15.75143880
ECCENTRICITY   = .0000967
INCLINATION    = 97.2840
RA_OF_ASC_NODE = 112.2466
ARG_OF_PERICENTER = 80.5036
MEAN_ANOMALY   = 265.2036

EPHEMERIS_TYPE = 0
CLASSIFICATION_TYPE = U
NORAD_CAT_ID   = 68143
ELEMENT_SET_NO = 999
REV_AT_EPOCH   = 434
BSTAR          = .17646E-3
MEAN_MOTION_DOT = .26219E-3
MEAN_MOTION_DDOT = 0

CCSDS_OMM_VERS = 2.0
CREATION_DATE  = 
ORIGINATOR     = 

OBJECT_NAME    = STARLINK-37020
OBJECT_ID      = 2026-049C
CENTER_NAME    = EARTH
REF_FRAME      = TEME
TIME_SYSTEM    = UTC
MEAN_ELEMENT_THEORY = SGP/SGP4

EPOCH          = 2026-04-01T03:15:17.719200
MEAN_MOTION    = 15.80902457
ECCENTRICITY   = .0000933
INCLINATION    = 97.2835
RA_OF_ASC_NODE = 111.5180
ARG_OF_PERICENTER = 116.1145
MEAN_ANOMALY   = 244.0219

EPHEMERIS_TYPE = 0
CLASSIFICATION_TYPE = U
NORAD_CAT_ID   = 68144
ELEMENT_SET_NO = 999
REV_AT_EPOCH   = 295
BSTAR          = .89883063E-3
MEAN_MOTION_DOT = .176242E-2
MEAN_MOTION_DDOT = 0

CCSDS_OMM_VERS = 2.0
CREATION_DATE  = 
ORIGINATOR     = 

OBJECT_NAME    = STARLINK-36244
OBJECT_ID      = 2026-049D
CENTER_NAME    = EARTH
REF_FRAME      = TEME
TIME_SYSTEM    = UTC
MEAN_ELEMENT_THEORY = SGP/SGP4

EPOCH          = 2026-04-01T18:52:02.878752
MEAN_MOTION    = 15.75242474
ECCENTRICITY   = .0001288
INCLINATION    = 97.2844
RA_OF_ASC_NODE = 112.1628
ARG_OF_PERICENTER = 83.5675
MEAN_ANOMALY   = 276.5736

EPHEMERIS_TYPE = 0
CLASSIFICATION_TYPE = U
NORAD_CAT_ID   = 68145
ELEMENT_SET_NO = 999
REV_AT_EPOCH   = 305
BSTAR          = .11659E-2
MEAN_MOTION_DOT = .177844E-2
MEAN_MOTION_DDOT = 0

CCSDS_OMM_VERS = 2.0
CREATION_DATE  = 
ORIGINATOR     = 

OBJECT_NAME    = STARLINK-36980
OBJECT_ID      = 2026-049E
CENTER_NAME    = EARTH
REF_FRAME      = TEME
TIME_SYSTEM    = UTC
MEAN_ELEMENT_THEORY = SGP/SGP4

EPOCH          = 2026-04-01T19:56:54.422880
MEAN_MOTION    = 15.80860169
ECCENTRICITY   = .0001144
INCLINATION    = 97.2842
RA_OF_ASC_NODE = 112.2555
ARG_OF_PERICENTER = 106.0631
MEAN_ANOMALY   = 254.0763

EPHEMERIS_TYPE = 0
CLASSIFICATION_TYPE = U
NORAD_CAT_ID   = 68146
ELEMENT_SET_NO = 999
REV_AT_EPOCH   = 306
BSTAR          = .47802E-3
MEAN_MOTION_DOT = .92584E-3
MEAN_MOTION_DDOT = 0

CCSDS_OMM_VERS = 2.0
CREATION_DATE  = 
ORIGINATOR     = 

OBJECT_NAME    = STARLINK-37055
OBJECT_ID      = 2026-049F
CENTER_NAME    = EARTH
REF_FRAME      = TEME
TIME_SYSTEM    = UTC
MEAN_ELEMENT_THEORY = SGP/SGP4

EPOCH          = 2026-04-01T19:59:04.327008
MEAN_MOTION    = 15.80877912
ECCENTRICITY   = .0001932
INCLINATION    = 97.2840
RA_OF_ASC_NODE = 112.2534
ARG_OF_PERICENTER = 132.6445
MEAN_ANOMALY   = 227.4987

EPHEMERIS_TYPE = 0
CLASSIFICATION_TYPE = U
NORAD_CAT_ID   = 68147
ELEMENT_SET_NO = 999
REV_AT_EPOCH   = 306
BSTAR          = .79797E-3
MEAN_MOTION_DOT = .155913E-2
MEAN_MOTION_DDOT = 0

CCSDS_OMM_VERS = 2.0
CREATION_DATE  = 
ORIGINATOR     = 

OBJECT_NAME    = STARLINK-36981
OBJECT_ID      = 2026-049G
CENTER_NAME    = EARTH
REF_FRAME      = TEME
TIME_SYSTEM    = UTC
MEAN_ELEMENT_THEORY = SGP/SGP4

EPOCH          = 2026-04-01T19:54:44.448768
MEAN_MOTION    = 15.80922497
ECCENTRICITY   = .0001625
INCLINATION    = 97.2832
RA_OF_ASC_NODE = 112.2574
ARG_OF_PERICENTER = 118.4739
MEAN_ANOMALY   = 241.6694

EPHEMERIS_TYPE = 0
CLASSIFICATION_TYPE = U
NORAD_CAT_ID   = 68148
ELEMENT_SET_NO = 999
REV_AT_EPOCH   = 306
BSTAR          = .1277E-2
MEAN_MOTION_DOT = .252914E-2
MEAN_MOTION_DDOT = 0

CCSDS_OMM_VERS = 2.0
CREATION_DATE  = 
ORIGINATOR     = 

OBJECT_NAME    = STARLINK-36992
OBJECT_ID      = 2026-049H
CENTER_NAME    = EARTH
REF_FRAME      = TEME
TIME_SYSTEM    = UTC
MEAN_ELEMENT_THEORY = SGP/SGP4

EPOCH          = 2026-04-01T19:53:39.518304
MEAN_MOTION    = 15.80913771
ECCENTRICITY   = .00016
INCLINATION    = 97.2833
RA_OF_ASC_NODE = 112.2585
ARG_OF_PERICENTER = 112.5207
MEAN_ANOMALY   = 247.6231

EPHEMERIS_TYPE = 0
CLASSIFICATION_TYPE = U
NORAD_CAT_ID   = 68149
ELEMENT_SET_NO = 999
REV_AT_EPOCH   = 306
BSTAR          = .12476E-2
MEAN_MOTION_DOT = .246819E-2
MEAN_MOTION_DDOT = 0

CCSDS_OMM_VERS = 2.0
CREATION_DATE  = 
ORIGINATOR     = 

OBJECT_NAME    = STARLINK-37060
OBJECT_ID      = 2026-049J
CENTER_NAME    = EARTH
REF_FRAME      = TEME
TIME_SYSTEM    = UTC
MEAN_ELEMENT_THEORY = SGP/SGP4

EPOCH          = 2026-04-01T19:52:34.696704
MEAN_MOTION    = 15.80880021
ECCENTRICITY   = .0001756
INCLINATION    = 97.2836
RA_OF_ASC_NODE = 112.2593
ARG_OF_PERICENTER = 109.3955
MEAN_ANOMALY   = 250.7503

EPHEMERIS_TYPE = 0
CLASSIFICATION_TYPE = U
NORAD_CAT_ID   = 68150
ELEMENT_SET_NO = 999
REV_AT_EPOCH   = 306
BSTAR          = .82935E-3
MEAN_MOTION_DOT = .162181E-2
MEAN_MOTION_DDOT = 0

CCSDS_OMM_VERS = 2.0
CREATION_DATE  = 
ORIGINATOR     = 

OBJECT_NAME    = STARLINK-37073
OBJECT_ID      = 2026-049K
CENTER_NAME    = EARTH
REF_FRAME      = TEME
TIME_SYSTEM    = UTC
MEAN_ELEMENT_THEORY = SGP/SGP4

EPOCH          = 2026-04-01T20:00:01.999008
MEAN_MOTION    = 15.75234422
ECCENTRICITY   = .0001255
INCLINATION    = 97.2835
RA_OF_ASC_NODE = 112.2609
ARG_OF_PERICENTER = 84.9608
MEAN_ANOMALY   = 292.7208

EPHEMERIS_TYPE = 0
CLASSIFICATION_TYPE = U
NORAD_CAT_ID   = 68151
ELEMENT_SET_NO = 999
REV_AT_EPOCH   = 434
BSTAR          = -.9985E-3
MEAN_MOTION_DOT = -.146815E-2
MEAN_MOTION_DDOT = 0

CCSDS_OMM_VERS = 2.0
CREATION_DATE  = 
ORIGINATOR     = 

OBJECT_NAME    = STARLINK-37049
OBJECT_ID      = 2026-049L
CENTER_NAME    = EARTH
REF_FRAME      = TEME
TIME_SYSTEM    = UTC
MEAN_ELEMENT_THEORY = SGP/SGP4

EPOCH          = 2026-04-01T19:50:23.561376
MEAN_MOTION    = 15.80810086
ECCENTRICITY   = .0001857
INCLINATION    = 97.2841
RA_OF_ASC_NODE = 112.2622
ARG_OF_PERICENTER = 100.8033
MEAN_ANOMALY   = 259.3445

EPHEMERIS_TYPE = 0
CLASSIFICATION_TYPE = U
NORAD_CAT_ID   = 68152
ELEMENT_SET_NO = 999
REV_AT_EPOCH   = 306
BSTAR          = -.97091E-4
MEAN_MOTION_DOT = -.18696E-3
MEAN_MOTION_DDOT = 0

CCSDS_OMM_VERS = 2.0
CREATION_DATE  = 
ORIGINATOR     = 

OBJECT_NAME    = STARLINK-37072
OBJECT_ID      = 2026-049M
CENTER_NAME    = EARTH
REF_FRAME      = TEME
TIME_SYSTEM    = UTC
MEAN_ELEMENT_THEORY = SGP/SGP4

EPOCH          = 2026-04-01T20:00:01.999008
MEAN_MOTION    = 15.75243849
ECCENTRICITY   = .0001212
INCLINATION    = 97.2842
RA_OF_ASC_NODE = 112.2525
ARG_OF_PERICENTER = 76.4370
MEAN_ANOMALY   = 281.2414

EPHEMERIS_TYPE = 0
CLASSIFICATION_TYPE = U
NORAD_CAT_ID   = 68153
ELEMENT_SET_NO = 999
REV_AT_EPOCH   = 434
BSTAR          = -.96117E-3
MEAN_MOTION_DOT = -.141475E-2
MEAN_MOTION_DDOT = 0

CCSDS_OMM_VERS = 2.0
CREATION_DATE  = 
ORIGINATOR     = 

OBJECT_NAME    = STARLINK-36241
OBJECT_ID      = 2026-049N
CENTER_NAME    = EARTH
REF_FRAME      = TEME
TIME_SYSTEM    = UTC
MEAN_ELEMENT_THEORY = SGP/SGP4

EPOCH          = 2026-04-01T20:17:56.178240
MEAN_MOTION    = 15.75237075
ECCENTRICITY   = .0001458
INCLINATION    = 97.2848
RA_OF_ASC_NODE = 112.2349
ARG_OF_PERICENTER = 109.3684
MEAN_ANOMALY   = 250.7739

EPHEMERIS_TYPE = 0
CLASSIFICATION_TYPE = U
NORAD_CAT_ID   = 68154
ELEMENT_SET_NO = 999
REV_AT_EPOCH   = 306
BSTAR          = .92138E-3
MEAN_MOTION_DOT = .139857E-2
MEAN_MOTION_DDOT = 0

